POLYITAN-1              
1 40042U 14033AJ  23117.11649435  .00006345  00000+0  59784-3 0  9991
2 40042  98.0042  64.7435 0014971  94.4790 265.8140 14.94099709480920
TIGRISAT                
1 40043U 14033AK  23116.74458832  .00002329  00000+0  33449-3 0  9997
2 40043  97.6638 294.3944 0057136 219.5331 140.1706 14.76268158475826
AISAT                   
1 40054U 14034B   23116.77216039  .00004288  00000+0  53650-3 0  9996
2 40054  98.3698 306.5615 0011872  36.7635 323.4389 14.82813581475844
CANX-4                  
1 40055U 14034C   23117.19327610  .00001683  00000+0  24984-3 0  9996
2 40055  98.3880 290.2033 0015090  81.4308 278.8610 14.76383011475024
CANX-5                  
1 40056U 14034D   23116.79355023  .00001732  00000+0  25687-3 0  9997
2 40056  98.3882 289.7733 0015105  82.7279 277.5646 14.76383744465741
VELOX-I                 
1 40057U 14034E   23117.08236071  .00003852  00000+0  49784-3 0  9991
2 40057  98.3747 307.8216 0010728  54.0872 306.1304 14.81526142475868
METEOR-M 2              
1 40069U 14037A   23117.07248728  .00000420  00000+0  21360-3 0  9996
2 40069  98.4252 125.4208 0006850 124.1311 236.0530 14.20771653456397
DX1                     
1 40071U 14037C   23117.11196568  .00002022  00000+0  25698-3 0  9996
2 40071  98.3658   5.8024 0008706  38.7980 321.3860 14.82821381475803
UKUBE-1                 
1 40074U 14037F   23117.21541949  .00003995  00000+0  44336-3 0  9997
2 40074  98.3473  19.0372 0004392  13.5385 346.5621 14.87854307476670
FIREBIRD 3              
1 40377U 15003B   23116.39898530  .00121959  00000+0  14277-2 0  9997
2 40377  99.0763  60.4916 0054523  35.6954 324.7922 15.59297293456538
FIREBIRD 4              
1 40378U 15003C   23117.36549128  .00127571  00000+0  14782-2 0  9999
2 40378  99.0769  62.0381 0054180  31.6343 328.8145 15.59565670456704
GRIFEX                  
1 40379U 15003D   23117.33233884  .00037717  00000+0  90647-3 0  9993
2 40379  99.0782  42.0015 0090019  86.5055 274.6475 15.37044269455561
CP10 (EXOCUBE)          
1 40380U 15003E   23117.28481624  .00021413  00000+0  63149-3 0  9999
2 40380  99.0848  32.4601 0103764 117.8240 243.3558 15.29785276454943
DEORBITSAIL             
1 40719U 15032E   23116.88155656  .00004034  00000+0  52528-3 0  9994
2 40719  97.7414 349.4584 0016500  67.9787 292.3177 14.81059473420221
XW-2C                   
1 40906U 15049H   23117.49143108  .00017781  00000+0  70803-3 0  9996
2 40906  97.4967 124.5015 0011601 352.1422 160.0123 15.25241233420668
XW-2D                   
1 40907U 15049J   23117.50494698  .00021239  00000+0  80315-3 0  9994
2 40907  97.4944 124.9183 0010565 346.3270 164.7148 15.26936152420747
LILACSAT-2              
1 40908U 15049K   23117.13126630  .00006123  00000+0  29421-3 0  9998
2 40908  97.5265 120.3548 0014143  16.8054  48.0989 15.19111570420046
