[{"OBJECT_NAME":"POLYITAN-1","OBJECT_ID":"2014-033AJ","EPOCH":"2023-04-27T02:47:45.111840","MEAN_MOTION":14.94099709,"ECCENTRICITY":0.0014971,"INCLINATION":98.0042,"RA_OF_ASC_NODE":64.7435,"ARG_OF_PERICENTER":94.479,"MEAN_ANOMALY":265.814,"EPHEMERIS_TYPE":0,"CLASSIFICATION_TYPE":"U","NORAD_CAT_ID":40042,"ELEMENT_SET_NO":999,"REV_AT_EPOCH":48092,"BSTAR":0.00059784,"MEAN_MOTION_DOT":6.345e-5,"MEAN_MOTION_DDOT":0},{"OBJECT_NAME":"TIGRISAT","OBJECT_ID":"2014-033AK","EPOCH":"2023-04-26T17:52:12.430848","MEAN_MOTION":14.76268158,"ECCENTRICITY":0.0057136,"INCLINATION":97.6638,"RA_OF_ASC_NODE":294.3944,"ARG_OF_PERICENTER":219.5331,"MEAN_ANOMALY":140.1706,"EPHEMERIS_TYPE":0,"CLASSIFICATION_TYPE":"U","NORAD_CAT_ID":40043,"ELEMENT_SET_NO":999,"REV_AT_EPOCH":47582,"BSTAR":0.00033449,"MEAN_MOTION_DOT":2.329e-5,"MEAN_MOTION_DDOT":0},{"OBJECT_NAME":"AISAT","OBJECT_ID":"2014-034B","EPOCH":"2023-04-26T18:31:54.657696","MEAN_MOTION":14.82813581,"ECCENTRICITY":0.0011872,"INCLINATION":98.3698,"RA_OF_ASC_NODE":306.5615,"ARG_OF_PERICENTER":36.7635,"MEAN_ANOMALY":323.4389,"EPHEMERIS_TYPE":0,"CLASSIFICATION_TYPE":"U","NORAD_CAT_ID":40054,"ELEMENT_SET_NO":999,"REV_AT_EPOCH":47584,"BSTAR":0.0005365,"MEAN_MOTION_DOT":4.288e-5,"MEAN_MOTION_DDOT":0},{"OBJECT_NAME":"CANX-4","OBJECT_ID":"2014-034C","EPOCH":"2023-04-27T04:38:19.055040","MEAN_MOTION":14.76383011,"ECCENTRICITY":0.001509,"INCLINATION":98.388,"RA_OF_ASC_NODE":290.2033,"ARG_OF_PERICENTER":81.4308,"MEAN_ANOMALY":278.861,"EPHEMERIS_TYPE":0,"CLASSIFICATION_TYPE":"U","NORAD_CAT_ID":40055,"ELEMENT_SET_NO":999,"REV_AT_EPOCH":47502,"BSTAR":0.00024984,"MEAN_MOTION_DOT":1.683e-5,"MEAN_MOTION_DDOT":0},{"OBJECT_NAME":"CANX-5","OBJECT_ID":"2014-034D","EPOCH":"2023-04-26T19:02:42.739872","MEAN_MOTION":14.76383744,"ECCENTRICITY":0.0015105,"INCLINATION":98.3882,"RA_OF_ASC_NODE":289.7733,"ARG_OF_PERICENTER":82.7279,"MEAN_ANOMALY":277.5646,"EPHEMERIS_TYPE":0,"CLASSIFICATION_TYPE":"U","NORAD_CAT_ID":40056,"ELEMENT_SET_NO":999,"REV_AT_EPOCH":46574,"BSTAR":0.00025687,"MEAN_MOTION_DOT":1.732e-5,"MEAN_MOTION_DDOT":0},{"OBJECT_NAME":"VELOX-I","OBJECT_ID":"2014-034E","EPOCH":"2023-04-27T01:58:35.965344","MEAN_MOTION":14.81526142,"ECCENTRICITY":0.0010728,"INCLINATION":98.3747,"RA_OF_ASC_NODE":307.8216,"ARG_OF_PERICENTER":54.0872,"MEAN_ANOMALY":306.1304,"EPHEMERIS_TYPE":0,"CLASSIFICATION_TYPE":"U","NORAD_CAT_ID":40057,"ELEMENT_SET_NO":999,"REV_AT_EPOCH":47586,"BSTAR":0.00049784,"MEAN_MOTION_DOT":3.852e-5,"MEAN_MOTION_DDOT":0},{"OBJECT_NAME":"METEOR-M 2","OBJECT_ID":"2014-037A","EPOCH":"2023-04-27T01:44:22.900992","MEAN_MOTION":14.20771653,"ECCENTRICITY":0.000685,"INCLINATION":98.4252,"RA_OF_ASC_NODE":125.4208,"ARG_OF_PERICENTER":124.1311,"MEAN_ANOMALY":236.053,"EPHEMERIS_TYPE":0,"CLASSIFICATION_TYPE":"U","NORAD_CAT_ID":40069,"ELEMENT_SET_NO":999,"REV_AT_EPOCH":45639,"BSTAR":0.0002136,"MEAN_MOTION_DOT":4.2e-6,"MEAN_MOTION_DDOT":0},{"OBJECT_NAME":"DX1","OBJECT_ID":"2014-037C","EPOCH":"2023-04-27T02:41:13.834752","MEAN_MOTION":14.82821381,"ECCENTRICITY":0.0008706,"INCLINATION":98.3658,"RA_OF_ASC_NODE":5.8024,"ARG_OF_PERICENTER":38.798,"MEAN_ANOMALY":321.386,"EPHEMERIS_TYPE":0,"CLASSIFICATION_TYPE":"U","NORAD_CAT_ID":40071,"ELEMENT_SET_NO":999,"REV_AT_EPOCH":47580,"BSTAR":0.00025698,"MEAN_MOTION_DOT":2.022e-5,"MEAN_MOTION_DDOT":0},{"OBJECT_NAME":"UKUBE-1","OBJECT_ID":"2014-037F","EPOCH":"2023-04-27T05:10:12.243936","MEAN_MOTION":14.87854307,"ECCENTRICITY":0.0004392,"INCLINATION":98.3473,"RA_OF_ASC_NODE":19.0372,"ARG_OF_PERICENTER":13.5385,"MEAN_ANOMALY":346.5621,"EPHEMERIS_TYPE":0,"CLASSIFICATION_TYPE":"U","NORAD_CAT_ID":40074,"ELEMENT_SET_NO":999,"REV_AT_EPOCH":47667,"BSTAR":0.00044336,"MEAN_MOTION_DOT":3.995e-5,"MEAN_MOTION_DDOT":0},{"OBJECT_NAME":"FIREBIRD 3","OBJECT_ID":"2015-003B","EPOCH":"2023-04-26T09:34:32.329920","MEAN_MOTION":15.59297293,"ECCENTRICITY":0.0054523,"INCLINATION":99.0763,"RA_OF_ASC_NODE":60.4916,"ARG_OF_PERICENTER":35.6954,"MEAN_ANOMALY":324.7922,"EPHEMERIS_TYPE":0,"CLASSIFICATION_TYPE":"U","NORAD_CAT_ID":40377,"ELEMENT_SET_NO":999,"REV_AT_EPOCH":45653,"BSTAR":0.0014277,"MEAN_MOTION_DOT":0.00121959,"MEAN_MOTION_DDOT":0},{"OBJECT_NAME":"FIREBIRD 4","OBJECT_ID":"2015-003C","EPOCH":"2023-04-27T08:46:18.446592","MEAN_MOTION":15.5956567,"ECCENTRICITY":0.005418,"INCLINATION":99.0769,"RA_OF_ASC_NODE":62.0381,"ARG_OF_PERICENTER":31.6343,"MEAN_ANOMALY":328.8145,"EPHEMERIS_TYPE":0,"CLASSIFICATION_TYPE":"U","NORAD_CAT_ID":40378,"ELEMENT_SET_NO":999,"REV_AT_EPOCH":45670,"BSTAR":0.0014782,"MEAN_MOTION_DOT":0.00127571,"MEAN_MOTION_DDOT":0},{"OBJECT_NAME":"GRIFEX","OBJECT_ID":"2015-003D","EPOCH":"2023-04-27T07:58:34.075776","MEAN_MOTION":15.37044269,"ECCENTRICITY":0.0090019,"INCLINATION":99.0782,"RA_OF_ASC_NODE":42.0015,"ARG_OF_PERICENTER":86.5055,"MEAN_ANOMALY":274.6475,"EPHEMERIS_TYPE":0,"CLASSIFICATION_TYPE":"U","NORAD_CAT_ID":40379,"ELEMENT_SET_NO":999,"REV_AT_EPOCH":45556,"BSTAR":0.00090647,"MEAN_MOTION_DOT":0.00037717,"MEAN_MOTION_DDOT":0},{"OBJECT_NAME":"CP10 (EXOCUBE)","OBJECT_ID":"2015-003E","EPOCH":"2023-04-27T06:50:08.123136","MEAN_MOTION":15.29785276,"ECCENTRICITY":0.0103764,"INCLINATION":99.0848,"RA_OF_ASC_NODE":32.4601,"ARG_OF_PERICENTER":117.824,"MEAN_ANOMALY":243.3558,"EPHEMERIS_TYPE":0,"CLASSIFICATION_TYPE":"U","NORAD_CAT_ID":40380,"ELEMENT_SET_NO":999,"REV_AT_EPOCH":45494,"BSTAR":0.00063149,"MEAN_MOTION_DOT":0.00021413,"MEAN_MOTION_DDOT":0},{"OBJECT_NAME":"DEORBITSAIL","OBJECT_ID":"2015-032E","EPOCH":"2023-04-26T21:09:26.486784","MEAN_MOTION":14.81059473,"ECCENTRICITY":0.00165,"INCLINATION":97.7414,"RA_OF_ASC_NODE":349.4584,"ARG_OF_PERICENTER":67.9787,"MEAN_ANOMALY":292.3177,"EPHEMERIS_TYPE":0,"CLASSIFICATION_TYPE":"U","NORAD_CAT_ID":40719,"ELEMENT_SET_NO":999,"REV_AT_EPOCH":42022,"BSTAR":0.00052528,"MEAN_MOTION_DOT":4.034e-5,"MEAN_MOTION_DDOT":0},{"OBJECT_NAME":"XW-2C","OBJECT_ID":"2015-049H","EPOCH":"2023-04-27T11:47:39.645312","MEAN_MOTION":15.25241233,"ECCENTRICITY":0.0011601,"INCLINATION":97.4967,"RA_OF_ASC_NODE":124.5015,"ARG_OF_PERICENTER":352.1422,"MEAN_ANOMALY":160.0123,"EPHEMERIS_TYPE":0,"CLASSIFICATION_TYPE":"U","NORAD_CAT_ID":40906,"ELEMENT_SET_NO":999,"REV_AT_EPOCH":42066,"BSTAR":0.00070803,"MEAN_MOTION_DOT":0.00017781,"MEAN_MOTION_DDOT":0},{"OBJECT_NAME":"XW-2D","OBJECT_ID":"2015-049J","EPOCH":"2023-04-27T12:07:07.419072","MEAN_MOTION":15.26936152,"ECCENTRICITY":0.0010565,"INCLINATION":97.4944,"RA_OF_ASC_NODE":124.9183,"ARG_OF_PERICENTER":346.327,"MEAN_ANOMALY":164.7148,"EPHEMERIS_TYPE":0,"CLASSIFICATION_TYPE":"U","NORAD_CAT_ID":40907,"ELEMENT_SET_NO":999,"REV_AT_EPOCH":42074,"BSTAR":0.00080315,"MEAN_MOTION_DOT":0.00021239,"MEAN_MOTION_DDOT":0},{"OBJECT_NAME":"LILACSAT-2","OBJECT_ID":"2015-049K","EPOCH":"2023-04-27T03:09:01.408320","MEAN_MOTION":15.1911157,"ECCENTRICITY":0.0014143,"INCLINATION":97.5265,"RA_OF_ASC_NODE":120.3548,"ARG_OF_PERICENTER":16.8054,"MEAN_ANOMALY":48.0989,"EPHEMERIS_TYPE":0,"CLASSIFICATION_TYPE":"U","NORAD_CAT_ID":40908,"ELEMENT_SET_NO":999,"REV_AT_EPOCH":42004,"BSTAR":0.00029421,"MEAN_MOTION_DOT":6.123e-5,"MEAN_MOTION_DDOT":0}]
